GLOBALSTAR M094         
1 39074U 13005C   24192.89369755 -.00000093  00000+0  57327-4 0  9992
2 39074  51.9943 141.2547 0000165 354.7074   5.3791 12.62267400529272
GLOBALSTAR M096         
1 39075U 13005D   24192.90685422 -.00000109  00000+0 -28789-4 0  9996
2 39075  52.0044 189.4634 0000311 219.2783 140.8062 12.62267520528192
GLOBALSTAR M078         
1 39076U 13005E   24192.56387337  .00000030  00000+0  74675-3 0  9998
2 39076  51.9874 275.4851 0001463 137.0748 223.0233 12.62272707526775
GLOBALSTAR M095         
1 39077U 13005F   24192.66907924 -.00000074  00000+0  16550-3 0  9997
2 39077  51.9799 272.5284 0001059 160.5143 199.5764 12.62262082526648
GLOBALSTAR M087         
1 52888U 22064A   24192.87064296 -.00000090  00000+0  73956-4 0  9998
2 52888  51.9751 125.7975 0009908  64.4719 295.7205 13.37577926100690
